{
  "type": "FeatureCollection",
  "features": [
    {
      "type": "Feature",
      "properties": {
        "norad_id": 54741,
        "name": "GALAXY 35 (G-35)",
        "group": "intelsat",
        "lat": -0.01703297405744017,
        "lon": -86.17502035104,
        "alt_km": 35776.11024553476,
        "timestamp": "2025-12-14T18:52:55.166230+00:00",
        "meta_object_name": "GALAXY 35 (G-35)",
        "meta_object_id": "2022-170A",
        "meta_epoch": "2025-12-13T21:33:58.924224",
        "meta_mean_motion": 1.00271141,
        "meta_eccentricity": 0.0002418,
        "meta_inclination": 0.0152,
        "meta_ra_of_asc_node": 291.6452,
        "meta_arg_of_pericenter": 337.014,
        "meta_mean_anomaly": 44.5656,
        "meta_ephemeris_type": 0,
        "meta_classification_type": "U",
        "meta_norad_cat_id": 54741,
        "meta_element_set_no": 999,
        "meta_rev_at_epoch": 1103,
        "meta_bstar": 0,
        "meta_mean_motion_dot": -1.46e-06,
        "meta_mean_motion_ddot": 0,
        "tle_line1": "1 54741U 22170A   25347.89859866 -.00000146  00000+0  00000+0 0  9993",
        "tle_line2": "2 54741   0.0152 291.6452 0002418 337.0140  44.5656  1.00271141 11035"
      },
      "geometry": {
        "type": "Point",
        "coordinates": [
          -86.17502035104,
          -0.01703297405744017
        ]
      }
    },
    {
      "type": "Feature",
      "properties": {
        "norad_id": 54742,
        "name": "GALAXY 36 (G-36)",
        "group": "intelsat",
        "lat": -0.01742891602991846,
        "lon": -82.07602850966062,
        "alt_km": 35784.73409992529,
        "timestamp": "2025-12-14T18:52:55.166241+00:00",
        "meta_object_name": "GALAXY 36 (G-36)",
        "meta_object_id": "2022-170B",
        "meta_epoch": "2025-12-13T21:35:13.805376",
        "meta_mean_motion": 1.00272115,
        "meta_eccentricity": 3.508e-05,
        "meta_inclination": 0.0391,
        "meta_ra_of_asc_node": 136.7732,
        "meta_arg_of_pericenter": 168.8454,
        "meta_mean_anomaly": 12.0193,
        "meta_ephemeris_type": 0,
        "meta_classification_type": "U",
        "meta_norad_cat_id": 54742,
        "meta_element_set_no": 999,
        "meta_rev_at_epoch": 1091,
        "meta_bstar": 0,
        "meta_mean_motion_dot": -1.69e-06,
        "meta_mean_motion_ddot": 0,
        "tle_line1": "1 54742U 22170B   25347.89946534 -.00000169  00000+0  00000+0 0  9998",
        "tle_line2": "2 54742   0.0391 136.7732 0000350 168.8454  12.0193  1.00272115 10916"
      },
      "geometry": {
        "type": "Point",
        "coordinates": [
          -82.07602850966062,
          -0.01742891602991846
        ]
      }
    },
    {
      "type": "Feature",
      "properties": {
        "norad_id": 57493,
        "name": "GALAXY 37 (G-37)",
        "group": "intelsat",
        "lat": -0.01939940370037479,
        "lon": -120.08655035151527,
        "alt_km": 35778.080591694576,
        "timestamp": "2025-12-14T18:52:55.166253+00:00",
        "meta_object_name": "GALAXY 37 (G-37)",
        "meta_object_id": "2023-112A",
        "meta_epoch": "2025-12-13T21:24:07.369344",
        "meta_mean_motion": 1.00272209,
        "meta_eccentricity": 0.00020867,
        "meta_inclination": 0.0181,
        "meta_ra_of_asc_node": 44.8489,
        "meta_arg_of_pericenter": 222.8536,
        "meta_mean_anomaly": 9.1488,
        "meta_ephemeris_type": 0,
        "meta_classification_type": "U",
        "meta_norad_cat_id": 57493,
        "meta_element_set_no": 999,
        "meta_rev_at_epoch": 868,
        "meta_bstar": 0,
        "meta_mean_motion_dot": 6.4e-07,
        "meta_mean_motion_ddot": 0,
        "tle_line1": "1 57493U 23112A   25347.89175196  .00000064  00000+0  00000+0 0  9992",
        "tle_line2": "2 57493   0.0181  44.8489 0002086 222.8536   9.1488  1.00272209  8686"
      },
      "geometry": {
        "type": "Point",
        "coordinates": [
          -120.08655035151527,
          -0.01939940370037479
        ]
      }
    }
  ]
}